{"type": "FeatureCollection", "features": [ {"type": "Feature", "properties": {"norad_id": 32230, "name": "FENGYUN 1C DEB", "group": "fengyun-1c-debris", "lat": 20.69716997240479, "lon": -31.23147849919547, "alt_km": 709.0880748186137, "timestamp": "2025-12-21T05:44:51.871805+00:00", "meta": {"OBJECT_NAME": "FENGYUN 1C DEB", "OBJECT_ID": "1999-025CWC", "EPOCH": "2025-12-20T09:22:08.439744", "MEAN_MOTION": 14.56275202, "ECCENTRICITY": 0.00497589, "INCLINATION": 98.8696, "RA_OF_ASC_NODE": 144.4839, "ARG_OF_PERICENTER": 64.7578, "MEAN_ANOMALY": 324.6156, "EPHEMERIS_TYPE": 0, "CLASSIFICATION_TYPE": "U", "NORAD_CAT_ID": 32230, "ELEMENT_SET_NO": 999, "REV_AT_EPOCH": 60781, "BSTAR": 0.001606742, "MEAN_MOTION_DOT": 7.185e-05, "MEAN_MOTION_DDOT": 0}, "tle": {"line1": "1 32230U 99025CWC 25354.39037546  .00007185  00000+0  16067-2 0  9993", "line2": "2 32230  98.8696 144.4839 0049758  64.7578 324.6156 14.56275202607814"}}, "geometry": {"type": "Point", "coordinates": [-31.23147849919547, 20.69716997240479]}}, {"type": "Feature", "properties": {"norad_id": 32234, "name": "FENGYUN 1C DEB", "group": "fengyun-1c-debris", "lat": -9.302059371278267, "lon": 23.035186909897647, "alt_km": 972.1503265344008, "timestamp": "2025-12-21T05:44:51.871815+00:00", "meta": {"OBJECT_NAME": "FENGYUN 1C DEB", "OBJECT_ID": "1999-025CWG", "EPOCH": "2025-12-14T12:38:46.497984", "MEAN_MOTION": 13.9413283, "ECCENTRICITY": 0.01374559, "INCLINATION": 98.529, "RA_OF_ASC_NODE": 198.2432, "ARG_OF_PERICENTER": 331.2039, "MEAN_ANOMALY": 28.1585, "EPHEMERIS_TYPE": 0, "CLASSIFICATION_TYPE": "U", "NORAD_CAT_ID": 32234, "ELEMENT_SET_NO": 999, "REV_AT_EPOCH": 93234, "BSTAR": 0.0014985343, "MEAN_MOTION_DOT": 2.108e-05, "MEAN_MOTION_DDOT": 0}, "tle": {"line1": "1 32234U 99025CWG 25348.52692706  .00002108  00000+0  14985-2 0  9997", "line2": "2 32234  98.5290 198.2432 0137455 331.2039  28.1585 13.94132830932348"}}, "geometry": {"type": "Point", "coordinates": [23.035186909897647, -9.302059371278267]}}, {"type": "Feature", "properties": {"norad_id": 32241, "name": "FENGYUN 1C DEB", "group": "fengyun-1c-debris", "lat": -24.050496923232853, "lon": -159.05243087948523, "alt_km": 696.5189014741063, "timestamp": "2025-12-21T05:44:51.871825+00:00", "meta": {"OBJECT_NAME": "FENGYUN 1C DEB", "OBJECT_ID": "1999-025CWP", "EPOCH": "2025-12-17T08:21:13.096800", "MEAN_MOTION": 14.28778702, "ECCENTRICITY": 0.01465119, "INCLINATION": 99.0771, "RA_OF_ASC_NODE": 20.9898, "ARG_OF_PERICENTER": 210.2379, "MEAN_ANOMALY": 149.0287, "EPHEMERIS_TYPE": 0, "CLASSIFICATION_TYPE": "U", "NORAD_CAT_ID": 32241, "ELEMENT_SET_NO": 999, "REV_AT_EPOCH": 93889, "BSTAR": 0.0010923987, "MEAN_MOTION_DOT": 3.039e-05, "MEAN_MOTION_DDOT": 0}, "tle": {"line1": "1 32241U 99025CWP 25351.34806825  .00003039  00000+0  10924-2 0  9991", "line2": "2 32241  99.0771  20.9898 0146511 210.2379 149.0287 14.28778702938899"}}, "geometry": {"type": "Point", "coordinates": [-159.05243087948523, -24.050496923232853]}}, {"type": "Feature", "properties": {"norad_id": 32243, "name": "FENGYUN 1C DEB", "group": "fengyun-1c-debris", "lat": 46.5726985496372, "lon": -152.0459413705307, "alt_km": 708.7651467928736, "timestamp": "2025-12-21T05:44:51.871837+00:00", "meta": {"OBJECT_NAME": "FENGYUN 1C DEB", "OBJECT_ID": "1999-025CWR", "EPOCH": "2025-12-20T06:54:58.008096", "MEAN_MOTION": 14.04660142, "ECCENTRICITY": 0.02690971, "INCLINATION": 98.2673, "RA_OF_ASC_NODE": 18.2504, "ARG_OF_PERICENTER": 102.1335, "MEAN_ANOMALY": 261.0117, "EPHEMERIS_TYPE": 0, "CLASSIFICATION_TYPE": "U", "NORAD_CAT_ID": 32243, "ELEMENT_SET_NO": 999, "REV_AT_EPOCH": 93694, "BSTAR": 0.0015029766, "MEAN_MOTION_DOT": 3.288e-05, "MEAN_MOTION_DDOT": 0}, "tle": {"line1": "1 32243U 99025CWR 25354.28817139  .00003288  00000+0  15030-2 0  9998", "line2": "2 32243  98.2673  18.2504 0269097 102.1335 261.0117 14.04660142936946"}}, "geometry": {"type": "Point", "coordinates": [-152.0459413705307, 46.5726985496372]}}, {"type": "Feature", "properties": {"norad_id": 32245, "name": "FENGYUN 1C DEB", "group": "fengyun-1c-debris", "lat": 80.6267594614517, "lon": 79.23373576411376, "alt_km": 681.8281167511477, "timestamp": "2025-12-21T05:44:51.871847+00:00", "meta": {"OBJECT_NAME": "FENGYUN 1C DEB", "OBJECT_ID": "1999-025CWT", "EPOCH": "2025-12-16T06:38:31.473888", "MEAN_MOTION": 14.77030772, "ECCENTRICITY": 0.0097149, "INCLINATION": 98.6547, "RA_OF_ASC_NODE": 186.5841, "ARG_OF_PERICENTER": 330.7675, "MEAN_ANOMALY": 28.8116, "EPHEMERIS_TYPE": 0, "CLASSIFICATION_TYPE": "U", "NORAD_CAT_ID": 32245, "ELEMENT_SET_NO": 999, "REV_AT_EPOCH": 66158, "BSTAR": 0.00082943136, "MEAN_MOTION_DOT": 6.263e-05, "MEAN_MOTION_DDOT": 0}, "tle": {"line1": "1 32245U 99025CWT 25350.27675317  .00006263  00000+0  82943-3 0  9999", "line2": "2 32245  98.6547 186.5841 0097149 330.7675  28.8116 14.77030772661581"}}, "geometry": {"type": "Point", "coordinates": [79.23373576411376, 80.6267594614517]}}, {"type": "Feature", "properties": {"norad_id": 32304, "name": "FENGYUN 1C DEB", "group": "fengyun-1c-debris", "lat": 5.718484679502593, "lon": -50.17069121176668, "alt_km": 759.3165355437504, "timestamp": "2025-12-21T05:44:51.871857+00:00", "meta": {"OBJECT_NAME": "FENGYUN 1C DEB", "OBJECT_ID": "1999-025CWV", "EPOCH": "2025-12-03T02:19:20.087328", "MEAN_MOTION": 14.50391603, "ECCENTRICITY": 0.00495576, "INCLINATION": 99.3949, "RA_OF_ASC_NODE": 290.5539, "ARG_OF_PERICENTER": 255.7789, "MEAN_ANOMALY": 103.7894, "EPHEMERIS_TYPE": 0, "CLASSIFICATION_TYPE": "U", "NORAD_CAT_ID": 32304, "ELEMENT_SET_NO": 999, "REV_AT_EPOCH": 56133, "BSTAR": 0.0019806873, "MEAN_MOTION_DOT": 7.809e-05, "MEAN_MOTION_DDOT": 0}, "tle": {"line1": "1 32304U 99025CWV 25337.09676027  .00007809  00000+0  19807-2 0  9994", "line2": "2 32304  99.3949 290.5539 0049557 255.7789 103.7894 14.50391603561335"}}, "geometry": {"type": "Point", "coordinates": [-50.17069121176668, 5.718484679502593]}}, {"type": "Feature", "properties": {"norad_id": 32308, "name": "FENGYUN 1C DEB", "group": "fengyun-1c-debris", "lat": -31.533914817340904, "lon": 51.745632052107645, "alt_km": 850.1886121904226, "timestamp": "2025-12-21T05:44:51.871867+00:00", "meta": {"OBJECT_NAME": "FENGYUN 1C DEB", "OBJECT_ID": "1999-025CWZ", "EPOCH": "2025-12-18T02:43:23.295648", "MEAN_MOTION": 14.05525608, "ECCENTRICITY": 0.01083328, "INCLINATION": 97.7739, "RA_OF_ASC_NODE": 44.2538, "ARG_OF_PERICENTER": 44.9982, "MEAN_ANOMALY": 315.9904, "EPHEMERIS_TYPE": 0, "CLASSIFICATION_TYPE": "U", "NORAD_CAT_ID": 32308, "ELEMENT_SET_NO": 999, "REV_AT_EPOCH": 65487, "BSTAR": 0.0012185561, "MEAN_MOTION_DOT": 2.054e-05, "MEAN_MOTION_DDOT": 0}, "tle": {"line1": "1 32308U 99025CWZ 25352.11346407  .00002054  00000+0  12186-2 0  9994", "line2": "2 32308  97.7739  44.2538 0108332  44.9982 315.9904 14.05525608654876"}}, "geometry": {"type": "Point", "coordinates": [51.745632052107645, -31.533914817340904]}}, {"type": "Feature", "properties": {"norad_id": 32314, "name": "FENGYUN 1C DEB", "group": "fengyun-1c-debris", "lat": -65.83972351233561, "lon": 121.51397396038834, "alt_km": 736.1747926019607, "timestamp": "2025-12-21T05:44:51.871876+00:00", "meta": {"OBJECT_NAME": "FENGYUN 1C DEB", "OBJECT_ID": "1999-025CXF", "EPOCH": "2025-12-18T13:08:32.417952", "MEAN_MOTION": 14.79656862, "ECCENTRICITY": 0.01487207, "INCLINATION": 98.8637, "RA_OF_ASC_NODE": 98.1883, "ARG_OF_PERICENTER": 139.4784, "MEAN_ANOMALY": 221.7612, "EPHEMERIS_TYPE": 0, "CLASSIFICATION_TYPE": "U", "NORAD_CAT_ID": 32314, "ELEMENT_SET_NO": 999, "REV_AT_EPOCH": 97516, "BSTAR": 0.0010944124, "MEAN_MOTION_DOT": 9.852e-05, "MEAN_MOTION_DDOT": 0}, "tle": {"line1": "1 32314U 99025CXF 25352.54759743  .00009852  00000+0  10944-2 0  9992", "line2": "2 32314  98.8637  98.1883 0148720 139.4784 221.7612 14.79656862975164"}}, "geometry": {"type": "Point", "coordinates": [121.51397396038834, -65.83972351233561]}}, {"type": "Feature", "properties": {"norad_id": 32316, "name": "FENGYUN 1C DEB", "group": "fengyun-1c-debris", "lat": 3.0863606012794915, "lon": -156.64805009770248, "alt_km": 732.9818418105142, "timestamp": "2025-12-21T05:44:51.871887+00:00", "meta": {"OBJECT_NAME": "FENGYUN 1C DEB", "OBJECT_ID": "1999-025CXH", "EPOCH": "2025-12-19T13:56:17.244096", "MEAN_MOTION": 14.51952704, "ECCENTRICITY": 0.0026401, "INCLINATION": 99.5285, "RA_OF_ASC_NODE": 20.9536, "ARG_OF_PERICENTER": 308.626, "MEAN_ANOMALY": 202.9731, "EPHEMERIS_TYPE": 0, "CLASSIFICATION_TYPE": "U", "NORAD_CAT_ID": 32316, "ELEMENT_SET_NO": 999, "REV_AT_EPOCH": 95876, "BSTAR": 0.001205, "MEAN_MOTION_DOT": 4.831e-05, "MEAN_MOTION_DDOT": 0}, "tle": {"line1": "1 32316U 99025CXH 25353.58075514  .00004831  00000+0  12050-2 0  9998", "line2": "2 32316  99.5285  20.9536 0026401 308.6260 202.9731 14.51952704958765"}}, "geometry": {"type": "Point", "coordinates": [-156.64805009770248, 3.0863606012794915]}}, {"type": "Feature", "properties": {"norad_id": 32320, "name": "FENGYUN 1C DEB", "group": "fengyun-1c-debris", "lat": -32.27239587050611, "lon": -139.31271991919843, "alt_km": 755.0523081001438, "timestamp": "2025-12-21T05:44:51.871897+00:00", "meta": {"OBJECT_NAME": "FENGYUN 1C DEB", "OBJECT_ID": "1999-025CXM", "EPOCH": "2025-12-19T20:27:32.982912", "MEAN_MOTION": 14.3617206, "ECCENTRICITY": 0.00563043, "INCLINATION": 100.3749, "RA_OF_ASC_NODE": 212.377, "ARG_OF_PERICENTER": 28.0804, "MEAN_ANOMALY": 332.3393, "EPHEMERIS_TYPE": 0, "CLASSIFICATION_TYPE": "U", "NORAD_CAT_ID": 32320, "ELEMENT_SET_NO": 999, "REV_AT_EPOCH": 62275, "BSTAR": 0.00057587, "MEAN_MOTION_DOT": 1.65e-05, "MEAN_MOTION_DDOT": 0}, "tle": {"line1": "1 32320U 99025CXM 25353.85246508  .00001650  00000+0  57587-3 0  9997", "line2": "2 32320 100.3749 212.3770 0056304  28.0804 332.3393 14.36172060622756"}}, "geometry": {"type": "Point", "coordinates": [-139.31271991919843, -32.27239587050611]}}]}